[{"OBJECT_NAME":"YAOGAN-30 04C","OBJECT_ID":"2017-085C","EPOCH":"2026-03-09T23:40:14.590272","MEAN_MOTION":15.02217282,"ECCENTRICITY":0.00053586,"INCLINATION":34.9965,"RA_OF_ASC_NODE":34.9402,"ARG_OF_PERICENTER":340.2354,"MEAN_ANOMALY":19.8146,"EPHEMERIS_TYPE":0,"CLASSIFICATION_TYPE":"U","NORAD_CAT_ID":43083,"ELEMENT_SET_NO":999,"REV_AT_EPOCH":44782,"BSTAR":0.0003185703,"MEAN_MOTION_DOT":4.258e-5,"MEAN_MOTION_DDOT":0},{"OBJECT_NAME":"STARLINK-6084","OBJECT_ID":"2023-046U","EPOCH":"2026-03-09T22:32:44.656800","MEAN_MOTION":15.02533583,"ECCENTRICITY":0.0001231,"INCLINATION":43.0002,"RA_OF_ASC_NODE":157.2391,"ARG_OF_PERICENTER":271.488,"MEAN_ANOMALY":88.5821,"EPHEMERIS_TYPE":0,"CLASSIFICATION_TYPE":"U","NORAD_CAT_ID":56111,"ELEMENT_SET_NO":999,"REV_AT_EPOCH":16210,"BSTAR":-0.00012692478,"MEAN_MOTION_DOT":-1.918e-5,"MEAN_MOTION_DDOT":0}]
